ORBCOMM FM 23
1 25477U 98053C   24190.98994751  .00001342  00000-0  51018-3 0  9996
2 25477  45.0092  95.0782 0002261 319.9129  40.1552 14.35570543348046
ORBCOMM FM 22
1 25476U 98053B   24191.40534822  .00001473  00000-0  54958-3 0  9993
2 25476  45.0088  87.7415 0002649 318.5067  41.5579 14.36090888347950
ORBCOMM FM 21
1 25475U 98053A   24191.45086422  .00001176  00000-0  45372-3 0  9995
2 25475  45.0093  90.4975 0001452 342.1901  17.8895 14.35518323347964
ORBCOMM FM 13
1 25420U 98046H   24191.56623292  .00001488  00000-0  55984-3 0  9997
2 25420  44.9995   5.5425 0003482 353.1680   6.9119 14.35621962353960
ORBCOMM FM 14
1 25419U 98046G   24191.55882419  .00001686  00000-0  61843-3 0  9993
2 25419  44.9977   0.3550 0000973 351.2048   8.8782 14.36391386354906
ORBCOMM FM 15
1 25418U 98046F   24191.54185112  .00001583  00000-0  58576-3 0  9992
2 25418  44.9992   1.4102 0002213  19.9794 340.1140 14.36195691354947
ORBCOMM FM 16
1 25417U 98046E   24191.57343882  .00001721  00000-0  62913-3 0  9998
2 25417  44.9960 357.0556 0002497  15.0977 344.9944 14.36483324354945
ORBCOMM FM 20
1 25416U 98046D   24191.58794492  .00001144  00000-0  44356-3 0  9995
2 25416  44.9964   1.6887 0000789 194.9952 165.0871 14.35427530355004
